{"type": "FeatureCollection", "features": [ {"type": "Feature", "properties": {"norad_id": 66929, "name": "STARLINK-36169", "group": "last-30-days", "lat": 16.742550802805557, "lon": 10.50213601255482, "alt_km": 359.2790357784552, "timestamp": "2025-12-23T07:45:08.117985+00:00", "meta": {"OBJECT_NAME": "STARLINK-36169", "OBJECT_ID": "2025-286E", "EPOCH": "2025-12-22T22:00:03.000096", "MEAN_MOTION": 15.70975428, "ECCENTRICITY": 0.00012357, "INCLINATION": 53.1592, "RA_OF_ASC_NODE": 359.472, "ARG_OF_PERICENTER": 102.5805, "MEAN_ANOMALY": 140.6737, "EPHEMERIS_TYPE": 0, "CLASSIFICATION_TYPE": "U", "NORAD_CAT_ID": 66929, "ELEMENT_SET_NO": 999, "REV_AT_EPOCH": 362, "BSTAR": -0.017052694, "MEAN_MOTION_DOT": -0.01930874, "MEAN_MOTION_DDOT": 0}, "tle": {"line1": "1 66929U 25286E   25356.91670139 -.01930874  00000+0 -17053-1 0  9992", "line2": "2 66929  53.1592 359.4720 0001235 102.5805 140.6737 15.70975428  3628"}}, "geometry": {"type": "Point", "coordinates": [10.50213601255482, 16.742550802805557]}}, {"type": "Feature", "properties": {"norad_id": 66930, "name": "STARLINK-36206", "group": "last-30-days", "lat": 18.23550166080688, "lon": 11.76478761421242, "alt_km": 359.05903294828386, "timestamp": "2025-12-23T07:45:08.117995+00:00", "meta": {"OBJECT_NAME": "STARLINK-36206", "OBJECT_ID": "2025-286F", "EPOCH": "2025-12-22T22:00:03.000096", "MEAN_MOTION": 15.70978278, "ECCENTRICITY": 0.00010371, "INCLINATION": 53.1592, "RA_OF_ASC_NODE": 359.4682, "ARG_OF_PERICENTER": 103.4329, "MEAN_ANOMALY": 141.7376, "EPHEMERIS_TYPE": 0, "CLASSIFICATION_TYPE": "U", "NORAD_CAT_ID": 66930, "ELEMENT_SET_NO": 999, "REV_AT_EPOCH": 362, "BSTAR": -0.017106099, "MEAN_MOTION_DOT": -0.01936288, "MEAN_MOTION_DDOT": 0}, "tle": {"line1": "1 66930U 25286F   25356.91670139 -.01936288  00000+0 -17106-1 0  9998", "line2": "2 66930  53.1592 359.4682 0001037 103.4329 141.7376 15.70978278  3625"}}, "geometry": {"type": "Point", "coordinates": [11.76478761421242, 18.23550166080688]}}, {"type": "Feature", "properties": {"norad_id": 66931, "name": "STARLINK-36130", "group": "last-30-days", "lat": 19.71662131061383, "lon": 13.04620517347294, "alt_km": 358.77433874002327, "timestamp": "2025-12-23T07:45:08.118006+00:00", "meta": {"OBJECT_NAME": "STARLINK-36130", "OBJECT_ID": "2025-286G", "EPOCH": "2025-12-22T22:00:03.000096", "MEAN_MOTION": 15.70975631, "ECCENTRICITY": 0.00012311, "INCLINATION": 53.1591, "RA_OF_ASC_NODE": 359.4642, "ARG_OF_PERICENTER": 104.7164, "MEAN_ANOMALY": 142.3696, "EPHEMERIS_TYPE": 0, "CLASSIFICATION_TYPE": "U", "NORAD_CAT_ID": 66931, "ELEMENT_SET_NO": 999, "REV_AT_EPOCH": 362, "BSTAR": -0.017037556, "MEAN_MOTION_DOT": -0.01929367, "MEAN_MOTION_DDOT": 0}, "tle": {"line1": "1 66931U 25286G   25356.91670139 -.01929367  00000+0 -17038-1 0  9993", "line2": "2 66931  53.1591 359.4642 0001231 104.7164 142.3696 15.70975631  3620"}}, "geometry": {"type": "Point", "coordinates": [13.04620517347294, 19.71662131061383]}}, {"type": "Feature", "properties": {"norad_id": 66932, "name": "STARLINK-36177", "group": "last-30-days", "lat": 21.19047590842301, "lon": 14.353146343112813, "alt_km": 358.4579292400085, "timestamp": "2025-12-23T07:45:08.118018+00:00", "meta": {"OBJECT_NAME": "STARLINK-36177", "OBJECT_ID": "2025-286H", "EPOCH": "2025-12-22T22:00:03.000096", "MEAN_MOTION": 15.70976742, "ECCENTRICITY": 0.00012433, "INCLINATION": 53.1592, "RA_OF_ASC_NODE": 359.46, "ARG_OF_PERICENTER": 100.0167, "MEAN_ANOMALY": 148.9871, "EPHEMERIS_TYPE": 0, "CLASSIFICATION_TYPE": "U", "NORAD_CAT_ID": 66932, "ELEMENT_SET_NO": 999, "REV_AT_EPOCH": 362, "BSTAR": -0.017072547, "MEAN_MOTION_DOT": -0.01932966, "MEAN_MOTION_DDOT": 0}, "tle": {"line1": "1 66932U 25286H   25356.91670139 -.01932966  00000+0 -17073-1 0  9992", "line2": "2 66932  53.1592 359.4600 0001243 100.0167 148.9871 15.70976742  3622"}}, "geometry": {"type": "Point", "coordinates": [14.353146343112813, 21.19047590842301]}}, {"type": "Feature", "properties": {"norad_id": 66933, "name": "STARLINK-36157", "group": "last-30-days", "lat": 22.655546130825346, "lon": 15.688446664537276, "alt_km": 358.2488633420462, "timestamp": "2025-12-23T07:45:08.118028+00:00", "meta": {"OBJECT_NAME": "STARLINK-36157", "OBJECT_ID": "2025-286J", "EPOCH": "2025-12-22T22:00:03.000096", "MEAN_MOTION": 15.70977784, "ECCENTRICITY": 0.00010836, "INCLINATION": 53.1591, "RA_OF_ASC_NODE": 359.4563, "ARG_OF_PERICENTER": 101.6203, "MEAN_ANOMALY": 149.3, "EPHEMERIS_TYPE": 0, "CLASSIFICATION_TYPE": "U", "NORAD_CAT_ID": 66933, "ELEMENT_SET_NO": 999, "REV_AT_EPOCH": 362, "BSTAR": -0.017084853, "MEAN_MOTION_DOT": -0.01934157, "MEAN_MOTION_DDOT": 0}, "tle": {"line1": "1 66933U 25286J   25356.91670139 -.01934157  00000+0 -17085-1 0  9990", "line2": "2 66933  53.1591 359.4563 0001083 101.6203 149.3000 15.70977784  3626"}}, "geometry": {"type": "Point", "coordinates": [15.688446664537276, 22.655546130825346]}}, {"type": "Feature", "properties": {"norad_id": 66934, "name": "STARLINK-36153", "group": "last-30-days", "lat": 24.107308533981033, "lon": 17.049840881394676, "alt_km": 358.0026180386867, "timestamp": "2025-12-23T07:45:08.118038+00:00", "meta": {"OBJECT_NAME": "STARLINK-36153", "OBJECT_ID": "2025-286K", "EPOCH": "2025-12-22T22:00:03.000096", "MEAN_MOTION": 15.70974673, "ECCENTRICITY": 0.0001153, "INCLINATION": 53.1592, "RA_OF_ASC_NODE": 359.4519, "ARG_OF_PERICENTER": 104.8896, "MEAN_ANOMALY": 147.9482, "EPHEMERIS_TYPE": 0, "CLASSIFICATION_TYPE": "U", "NORAD_CAT_ID": 66934, "ELEMENT_SET_NO": 999, "REV_AT_EPOCH": 362, "BSTAR": -0.017029818, "MEAN_MOTION_DOT": -0.01928463, "MEAN_MOTION_DDOT": 0}, "tle": {"line1": "1 66934U 25286K   25356.91670139 -.01928463  00000+0 -17030-1 0  9994", "line2": "2 66934  53.1592 359.4519 0001153 104.8896 147.9482 15.70974673  3622"}}, "geometry": {"type": "Point", "coordinates": [17.049840881394676, 24.107308533981033]}}, {"type": "Feature", "properties": {"norad_id": 66935, "name": "STARLINK-36127", "group": "last-30-days", "lat": 25.547304330512063, "lon": 18.443790765732288, "alt_km": 357.69101500852685, "timestamp": "2025-12-23T07:45:08.118049+00:00", "meta": {"OBJECT_NAME": "STARLINK-36127", "OBJECT_ID": "2025-286L", "EPOCH": "2025-12-22T22:00:03.000096", "MEAN_MOTION": 15.70974392, "ECCENTRICITY": 0.00011438, "INCLINATION": 53.159, "RA_OF_ASC_NODE": 359.448, "ARG_OF_PERICENTER": 99.2974, "MEAN_ANOMALY": 155.4591, "EPHEMERIS_TYPE": 0, "CLASSIFICATION_TYPE": "U", "NORAD_CAT_ID": 66935, "ELEMENT_SET_NO": 999, "REV_AT_EPOCH": 362, "BSTAR": -0.017054121, "MEAN_MOTION_DOT": -0.01930874, "MEAN_MOTION_DDOT": 0}, "tle": {"line1": "1 66935U 25286L   25356.91670139 -.01930874  00000+0 -17054-1 0  9990", "line2": "2 66935  53.1590 359.4480 0001143  99.2974 155.4591 15.70974392  3624"}}, "geometry": {"type": "Point", "coordinates": [18.443790765732288, 25.547304330512063]}}, {"type": "Feature", "properties": {"norad_id": 66936, "name": "STARLINK-36160", "group": "last-30-days", "lat": 26.974898802983635, "lon": 19.87285207342516, "alt_km": 357.5258330529523, "timestamp": "2025-12-23T07:45:08.118062+00:00", "meta": {"OBJECT_NAME": "STARLINK-36160", "OBJECT_ID": "2025-286M", "EPOCH": "2025-12-22T22:00:03.000096", "MEAN_MOTION": 15.70982748, "ECCENTRICITY": 0.00010639, "INCLINATION": 53.1591, "RA_OF_ASC_NODE": 359.4444, "ARG_OF_PERICENTER": 105.2345, "MEAN_ANOMALY": 151.4361, "EPHEMERIS_TYPE": 0, "CLASSIFICATION_TYPE": "U", "NORAD_CAT_ID": 66936, "ELEMENT_SET_NO": 999, "REV_AT_EPOCH": 362, "BSTAR": -0.017165459, "MEAN_MOTION_DOT": -0.0194258, "MEAN_MOTION_DDOT": 0}, "tle": {"line1": "1 66936U 25286M   25356.91670139 -.01942580  00000+0 -17165-1 0  9991", "line2": "2 66936  53.1591 359.4444 0001063 105.2345 151.4361 15.70982748  3622"}}, "geometry": {"type": "Point", "coordinates": [19.87285207342516, 26.974898802983635]}}, {"type": "Feature", "properties": {"norad_id": 66937, "name": "STARLINK-36165", "group": "last-30-days", "lat": 28.38561490335442, "lon": 21.335866474504954, "alt_km": 357.2105246571218, "timestamp": "2025-12-23T07:45:08.118084+00:00", "meta": {"OBJECT_NAME": "STARLINK-36165", "OBJECT_ID": "2025-286N", "EPOCH": "2025-12-22T22:00:03.000096", "MEAN_MOTION": 15.70978415, "ECCENTRICITY": 0.00010941, "INCLINATION": 53.1591, "RA_OF_ASC_NODE": 359.4402, "ARG_OF_PERICENTER": 100.9719, "MEAN_ANOMALY": 157.615, "EPHEMERIS_TYPE": 0, "CLASSIFICATION_TYPE": "U", "NORAD_CAT_ID": 66937, "ELEMENT_SET_NO": 999, "REV_AT_EPOCH": 362, "BSTAR": -0.017088533, "MEAN_MOTION_DOT": -0.01934579, "MEAN_MOTION_DDOT": 0}, "tle": {"line1": "1 66937U 25286N   25356.91670139 -.01934579  00000+0 -17089-1 0  9996", "line2": "2 66937  53.1591 359.4402 0001094 100.9719 157.6150 15.70978415  3628"}}, "geometry": {"type": "Point", "coordinates": [21.335866474504954, 28.38561490335442]}}, {"type": "Feature", "properties": {"norad_id": 66938, "name": "STARLINK-36155", "group": "last-30-days", "lat": 29.781396590901767, "lon": 22.839241933707598, "alt_km": 357.05382614666723, "timestamp": "2025-12-23T07:45:08.118096+00:00", "meta": {"OBJECT_NAME": "STARLINK-36155", "OBJECT_ID": "2025-286P", "EPOCH": "2025-12-22T22:00:03.000096", "MEAN_MOTION": 15.70976134, "ECCENTRICITY": 0.00010069, "INCLINATION": 53.159, "RA_OF_ASC_NODE": 359.4356, "ARG_OF_PERICENTER": 108.3253, "MEAN_ANOMALY": 152.1788, "EPHEMERIS_TYPE": 0, "CLASSIFICATION_TYPE": "U", "NORAD_CAT_ID": 66938, "ELEMENT_SET_NO": 999, "REV_AT_EPOCH": 362, "BSTAR": -0.017050676, "MEAN_MOTION_DOT": -0.01930554, "MEAN_MOTION_DDOT": 0}, "tle": {"line1": "1 66938U 25286P   25356.91670139 -.01930554  00000+0 -17051-1 0  9995", "line2": "2 66938  53.1590 359.4356 0001006 108.3253 152.1788 15.70976134  3627"}}, "geometry": {"type": "Point", "coordinates": [22.839241933707598, 29.781396590901767]}}]}